SHIYAN 4 (SY-4)         
1 37931U 11068B   21041.81064152  .00000012  00000-0  21817-4 0  9990
2 37931  98.6598  33.9594 0024518 107.3166 253.0699 14.29831175481667
ASIASAT 7               
1 37933U 11069A   21041.89268490 -.00000351  00000-0  00000-0 0  9996
2 37933   0.0710 273.5409 0001365  39.5968 254.8507  1.00274778 25284
YAOGAN 13               
1 37941U 11072A   21041.86696628  .00000690  00000-0  36590-4 0  9996
2 37941  97.5779 343.5580 0001313  12.6959  72.7833 15.18704490510159
BEIDOU 10               
1 37948U 11073A   21041.87102030 -.00000132  00000-0  00000-0 0  9999
2 37948  51.1773 295.1154 0069375 215.4951  39.8433  1.00281473 33823
LUCH 5A                 
1 37951U 11074B   21041.83194641 -.00000066  00000-0  00000-0 0  9995
2 37951   3.8150 108.4062 0003002 266.6428 232.5109  1.00269625 33610
SSOT                    
1 38011U 11076E   21041.85781671  .00000115  00000-0  21046-4 0  9993
2 38011  97.8435 120.5392 0001570  90.4567 269.6823 14.82026210495221
PLEIADES 1A             
1 38012U 11076F   21041.84972213 -.00000051  00000-0 -11813-5 0  9990
2 38012  98.1761 118.8599 0001786  91.0198 269.1198 14.58566833487418
NIGCOMSAT 1R            
1 38014U 11077A   21040.80223741  .00000129  00000-0  00000-0 0  9998
2 38014   0.0461 288.2970 0002519  80.4948 102.5489  1.00271801 33370
ZIYUAN 1-02C (ZY 1-02C) 
1 38038U 11079A   21041.89671279  .00000028  00000-0  25352-4 0  9998
2 38038  98.6575 101.9105 0005876 282.6837  77.3682 14.35298343478973
GLOBALSTAR M084         
1 38040U 11080A   21041.93125704 -.00000116  00000-0 -67991-4 0  9990
2 38040  51.9987 200.6710 0001177  98.4559  73.1594 12.62263547422430
GLOBALSTAR M080         
1 38041U 11080B   21041.90231785 -.00000124  00000-0 -11313-3 0  9990
2 38041  52.0038 201.8092 0001278  97.4933  61.6587 12.62268407422415
GLOBALSTAR M082         
1 38042U 11080C   21041.75813677 -.00000108  00000-0 -21370-4 0  9997
2 38042  52.0070 157.5257 0000500  96.1493  68.2771 12.62264482423122
GLOBALSTAR M092         
1 38043U 11080D   21041.62516899 -.00000067  00000-0  20719-3 0  9998
2 38043  52.0060 248.2193 0000932 100.5524 299.5855 12.62270092421633
GLOBALSTAR M090         
1 38044U 11080E   21041.78435814 -.00000122  00000-0 -10337-3 0  9991
2 38044  51.9880 153.3017 0000778  97.4434  66.0063 12.62265784423143
GLOBALSTAR M086         
1 38045U 11080F   21041.81238972 -.00000114  00000-0 -57765-4 0  9990
2 38045  51.9894 153.6443 0001936  77.0071  93.7302 12.62265202423095
ZIYUAN 3-1 (ZY 3-1)     
1 38046U 12001A   21041.98850450  .00000719  00000-0  35150-4 0  9997
2 38046  97.3947 118.3693 0004704  78.4430  94.2487 15.21336646504880
FENGYUN 2F              
1 38049U 12002A   21041.82106645 -.00000375  00000-0  00000-0 0  9995
2 38049   2.6138  82.7529 0004199  24.2696  81.8617  1.00270327 33314
WGS F4 (USA 233)        
1 38070U 12003A   21041.45737965 -.00000231  00000-0  00000-0 0  9995
2 38070   0.0128 109.9073 0000289 352.4150 291.4166  1.00270634 24568
LARES                   
1 38077U 12006A   21041.66524938 -.00000026  00000-0  75839-4 0  9990
2 38077  69.4941  27.3239 0006477  86.1722 274.0045 12.54931173412203
SES-4                   
1 38087U 12007A   21041.36360098 -.00000185  00000-0  00000-0 0  9994
2 38087   0.0144  40.0265 0002296 279.9381 289.5554  1.00272114 32665
BEIDOU 11               
1 38091U 12008A   21041.88219433  .00000039  00000-0  00000-0 0  9990
2 38091   1.9858  71.5911 0003905 254.2782 191.5870  1.00274622 32904
MUOS-1                  
1 38093U 12009A   21041.64776370 -.00000142  00000-0  00000-0 0  9991
2 38093   2.5644  16.2699 0057464 356.8024 261.0157  1.00270668 32864
INTELSAT 22 (IS-22)     
1 38098U 12011A   21041.81304073 -.00000076  00000-0  00000-0 0  9991
2 38098   0.0161  91.7851 0002786 231.5445 182.5420  1.00272489 32242
APSTAR 7                
1 38107U 12013A   21041.81391309 -.00000118  00000-0  00000-0 0  9999
2 38107   0.0120 122.5809 0002357 217.1463 170.8202  1.00271576 32231
YAHSAT 1B               
1 38245U 12016A   21041.66465231  .00000110  00000-0  00000-0 0  9995
2 38245   0.0120 108.5349 0001785 214.3175 104.9327  1.00271690 26012
BEIDOU 12               
1 38250U 12018A   21041.66912848 -.00000105  00000-0  00000-0 0  9999
2 38250  56.7570   9.7978 0024018 251.1543 359.5968  1.86234316 59920
BEIDOU 13               
1 38251U 12018B   21041.51061133 -.00000105  00000-0  00000-0 0  9996
2 38251  56.6797   9.1595 0015202 256.3784 292.5410  1.86234199 59926
AEHF-2 (USA 235)        
1 38254U 12019A   21041.78521247 -.00000291  00000-0  00000-0 0  9992
2 38254   2.3934  53.8576 0002069 332.0988 330.0686  1.00265307 31272
TIANHUI 1-02            
1 38256U 12020A   21041.87234789  .00000778  00000-0  35684-4 0  9997
2 38256  97.4388 169.0572 0014480 213.4162 246.1787 15.23371109487568
YAOGAN 14               
1 38257U 12021A   21041.87432302  .00000928  00000-0  41814-4 0  9999
2 38257  97.4723 178.5655 0001849 101.0990  60.4035 15.23544527488699
JCSAT-13                
1 38331U 12023A   21041.83869009 -.00000373  00000-0  00000-0 0  9991
2 38331   0.0472 261.6394 0000925 143.6947 161.6922  1.00271074 31951
VINASAT-2               
1 38332U 12023B   21041.53789845 -.00000346  00000-0  00000-0 0  9998
2 38332   0.0599 278.4817 0002072  60.7399 127.0520  1.00273119 27084
GCOM-W1 (SHIZUKU)       
1 38337U 12025A   21041.57292572  .00000027  00000-0  16092-4 0  9992
2 38337  98.2174 344.1167 0000761   7.7372 165.8859 14.57110970464688
ARIRANG-3 (KOMPSAT-3)   
1 38338U 12025B   21041.88788300  .00000060  00000-0  21605-4 0  9999
2 38338  98.1745 343.1728 0012203 109.0330 251.2193 14.61648931466162
SDS-4                   
1 38339U 12025C   21041.91897866  .00000040  00000-0  15121-4 0  9996
2 38339  98.3162  93.5439 0008105  35.2400 324.9340 14.70618471468673
NIMIQ 6                 
1 38342U 12026A   21041.63691128 -.00000190  00000-0  00000-0 0  9996
2 38342   0.0171 277.1996 0001789  47.3816 314.5283  1.00268767 30844
CHINASAT 2A (ZX 2A)     
1 38352U 12028A   21041.83183608 -.00000310  00000-0  00000-0 0  9994
2 38352   0.0587 265.3122 0001864  98.7114 174.7830  1.00272218 31808
YAOGAN 15               
1 38354U 12029A   21041.73447201 -.00000027  00000-0  48372-4 0  9991
2 38354 100.6060 188.2507 0025522  32.4645 327.8035 13.18262332418179
INTELSAT 19 (IS-19)     
1 38356U 12030A   21041.83177193 -.00000074  00000-0  00000-0 0  9990
2 38356   0.0085  87.0483 0002890 248.8267 270.6773  1.00270250 30884
NUSTAR                  
1 38358U 12031A   21041.40017970  .00000973  00000-0  27812-4 0  9993
2 38358   6.0275 340.4280 0011125  80.7674 279.3713 14.88446595471471
ECHOSTAR 17             
1 38551U 12035A   21041.92092712 -.00000092  00000-0  00000-0 0  9995
2 38551   0.0155  90.1524 0002057 222.9584  52.4879  1.00271396 31482
METEOSAT-10 (MSG-3)     
1 38552U 12035B   21041.80056601  .00000046  00000-0  00000-0 0  9998
2 38552   1.2259 358.6149 0001130  45.9355  33.9222  1.00273793 31283
SES-5                   
1 38652U 12036A   21041.79969363  .00000016  00000-0  00000-0 0  9993
2 38652   0.0223  78.6992 0001541 245.2635 109.9537  1.00270591 24917
KANOPUS-V 1             
1 38707U 12039A   21041.84360554  .00000509  00000-0  27162-4 0  9999
2 38707  97.4642 323.8418 0001716  84.1985   1.3375 15.19531300474707
BKA 2                   
1 38708U 12039B   21041.77252924  .00000235  00000-0  13968-4 0  9998
2 38708  97.3684 308.9084 0001463  82.1074   3.4540 15.20067060474696
EXACTVIEW-1 (ADS-1B)    
1 38709U 12039C   21041.87122494 -.00000002  00000-0  19854-4 0  9991
2 38709  99.0796  89.2930 0011459  34.6435 325.5486 14.24039122444772
TET-1                   
1 38710U 12039D   21041.85222164  .00003214  00000-0  52911-4 0  9994
2 38710  97.5747  88.6177 0003262  66.5208 293.6388 15.53170712480864
MKA-PN 1                
1 38711U 12039E   21041.86962170  .00000004  00000-0  22018-4 0  9993
2 38711  99.0763  88.6790 0012058  35.1417 325.0554 14.24317164444842
TIANLIAN 1-03           
1 38730U 12040A   21041.15676450  .00000109  00000-0  00000+0 0  9999
2 38730   0.7944  98.6977 0006519 268.6992 209.8613  1.00274790 31403
COSMOS 2481             
1 38733U 12041A   21041.72904951  .00000030  00000-0  14942-3 0  9993
2 38733  82.4732 212.4188 0018671  11.0227 349.1256 12.42383642387388
GONETS-M 3              
1 38734U 12041B   21041.72329052  .00000023  00000-0  92426-4 0  9993
2 38734  82.4737 207.5852 0016388  17.4935 342.6707 12.44817081387803
GONETS-M 4              
1 38736U 12041D   21041.72507072  .00000027  00000-0  12021-3 0  9991
2 38736  82.4783 210.5942 0024587 359.3878   0.7168 12.43820374387647
INTELSAT 20 (IS-20)     
1 38740U 12043A   21041.16618601 -.00000041  00000-0  00000-0 0  9995
2 38740   0.0190 116.4246 0001459  71.0230  81.3104  1.00271924 31164
HYLAS 2                 
1 38741U 12043B   21041.66133735  .00000137  00000-0  00000-0 0  9996
2 38741   0.0036 287.4047 0001396  39.2540  83.3630  1.00273816 31182
EXPRESS-MD2             
1 38745U 12044B   21041.82713864  .00007653  26113-5  20186-3 0  9994
2 38745  49.8845 217.3514 2190894 213.5474 130.5532 11.07423493333720
INTELSAT 21 (IS-21)     
1 38749U 12045A   21041.42824284 -.00000301  00000-0  00000-0 0  9990
2 38749   0.0138  92.8421 0001753 235.5497 268.4561  1.00270254 30963
SPOT 6                  
1 38755U 12047A   21041.93376564 -.00000053  00000-0 -15960-5 0  9999
2 38755  98.2180 111.1943 0001676  87.7522 272.3860 14.58545164448501
AEROCUBE 4.5A           
1 38767U 12048K   21041.89886817  .00000222  00000-0  33287-4 0  9992
2 38767  64.6650 210.6293 0138960  49.4765 311.8353 14.92577812 77380
AEROCUBE 4.5B           
1 38768U 12048L   21041.64937022  .00000348  00000-0  40443-4 0  9992
2 38768  64.6666 175.6743 0130235  43.9049 317.2325 14.96362217 77518
